STARLINK-37344          
1 68744U 26082S   26129.16138799  .00160551  00000+0  10559-2 0  9990
2 68744  97.2838 352.0933 0001439  99.6226 260.5202 15.75218038  3644
STARLINK-37267          
1 68745U 26082T   26129.09010156  .00181434  00000+0  11914-2 0  9998
2 68745  97.2835 352.0378 0002657  43.8371 316.3104 15.75192997  3635
STARLINK-37347          
1 68746U 26082U   26129.20550830  .00136275  00000+0  89939-3 0  9996
2 68746  97.2831 352.1865 0001709  81.0510 279.0949 15.75205639  3652
STARLINK-37268          
1 68747U 26082V   26129.15609524  .00113124  00000+0  74884-3 0  9997
2 68747  97.2837 352.1001 0001446  93.9714 266.1717 15.75203920  3647
STARLINK-37325          
1 68748U 26082W   26129.16668980 -.00010126  00000+0 -67148-4 0  9996
2 68748  97.2853 352.1965 0001367  89.7485 162.3959 15.75174302  4912
STARLINK-37324          
1 68749U 26082X   26129.16668980 -.00048074  00000+0 -32304-3 0  9995
2 68749  97.2850 352.2066 0001571  97.7453 180.3948 15.75204701  4919
STARLINK-37350          
1 68750U 26082Y   26129.16668980  .00027099  00000+0  49799-3 0  9995
2 68750  97.2855 351.9507 0000907 114.9253 285.6076 15.49202410  4911
STARLINK-37277          
1 68751U 26082Z   26129.12998111  .00133364  00000+0  88068-3 0  9999
2 68751  97.2840 352.1373 0001295  76.2433 283.8976 15.75201407  3643
STARLINK-37342          
1 68752U 26082AA  26129.15785743  .00099908  00000+0  66332-3 0  9993
2 68752  97.2837 352.0976 0001441  94.0225 266.1205 15.75174790  3641
SL-4 R/B                
1 68753U 26083A   26129.18276961  .00003218  00000+0  13634-3 0  9991
2 68753  98.2684 276.6534 0063693   4.0417 356.1317 15.22192887  3390
COSMOS 2609             
1 68754U 26083B   26128.94210174  .00002134  00000+0  14620-3 0  9991
2 68754  98.1177 275.6860 0010834 196.5482 163.5392 15.07213630  3314
COSMOS 2610             
1 68758U 26083F   26128.94811690  .00001646  00000+0  11547-3 0  9997
2 68758  96.9602 267.1092 0010531 180.9535 179.1675 15.06330984  3295
COSMOS 2611             
1 68759U 26083G   26128.88298246  .00001451  00000+0  10290-3 0  9995
2 68759  96.9541 267.0436 0011658 190.6546 169.4438 15.06071470  3279
DAQI-2                  
1 68760U 26084A   26129.17952420  .00000019  00000+0  14294-4 0  9990
2 68760  98.2878 203.5115 0001360 175.3036 184.8176 14.57602179  3216
COSMOS 2612             
1 68762U 26083H   26128.94305080  .00002177  00000+0  14929-3 0  9990
2 68762  96.9615 267.1160 0012664 177.8047 182.3240 15.06866386  3296
COSMOS 2613             
1 68763U 26083J   26128.93950762  .00002440  00000+0  16468-3 0  9996
2 68763  96.9595 267.1208 0011170 183.1063 177.0099 15.07371912  3296
COSMOS 2614             
1 68764U 26083K   26128.93776423  .00002558  00000+0  17155-3 0  9991
2 68764  96.9544 267.1156 0011695 186.4614 173.6467 15.07569095  3295
STARLINK-37168          
1 68766U 26086A   26129.16223894  .00148684  00000+0  97940-3 0  9992
2 68766  97.2850 165.2223 0001032  79.7519 280.3862 15.75215106  3017
STARLINK-37174          
1 68767U 26086B   26129.16082851  .00077551  00000+0  51620-3 0  9998
2 68767  97.2848 165.2246 0001147  94.0122 266.1274 15.75185342  3014
STARLINK-37279          
1 68768U 26086C   26129.15941675  .00008347  00000+0  56849-4 0  9992
2 68768  97.2853 165.2263 0001353  78.9162 281.2256 15.75161294  3012
STARLINK-36379          
1 68769U 26086D   26129.16012150  .00140987  00000+0  92989-3 0  9992
2 68769  97.2849 165.2252 0000847  50.3899 309.7441 15.75207644  3016
STARLINK-37417          
1 68770U 26086E   26129.15765247  .00098587  00000+0  65433-3 0  9997
2 68770  97.2852 165.2291 0001457  72.1447 287.9977 15.75186282  3019
STARLINK-36759          
1 68771U 26086F   26129.15800466  .00100645  00000+0  66741-3 0  9993
2 68771  97.2855 165.2274 0001254  80.3489 279.7918 15.75200611  3013
STARLINK-37399          
1 68772U 26086G   26129.15694584  .00120106  00000+0  79437-3 0  9996
2 68772  97.2850 165.2297 0001129  76.2084 283.9307 15.75203810  3013
STARLINK-37281          
1 68773U 26086H   26129.15588777  .00156186  00000+0  10278-2 0  9997
2 68773  97.2851 165.2306 0001278  62.0841 298.0554 15.75217392  3016
STARLINK-37381          
1 68774U 26086J   26129.15482919  .00087672  00000+0  58268-3 0  9994
2 68774  97.2855 165.2319 0001086  57.7420 302.3950 15.75189007  3016
STARLINK-37418          
1 68775U 26086K   26129.15306395  .00091763  00000+0  60939-3 0  9992
2 68775  97.2854 165.2349 0001110  90.8695 269.2697 15.75194378  3015
STARLINK-37393          
1 68776U 26086L   26129.15129973  .00101307  00000+0  67191-3 0  9991
2 68776  97.2852 165.2369 0000987  80.4261 279.7116 15.75194976  3017
STARLINK-37400          
1 68777U 26086M   26129.14953477  .00139989  00000+0  92328-3 0  9992
2 68777  97.2853 165.2392 0000937  84.7305 275.4067 15.75210952  3017
STARLINK-37389          
1 68778U 26086N   26129.15271058  .00082944  00000+0  55155-3 0  9997
2 68778  97.2854 165.2346 0001041  88.5738 271.5646 15.75191311  3014
