OBJECT_NAME,OBJECT_ID,EPOCH,MEAN_MOTION,ECCENTRICITY,INCLINATION,RA_OF_ASC_NODE,ARG_OF_PERICENTER,MEAN_ANOMALY,EPHEMERIS_TYPE,CLASSIFICATION_TYPE,NORAD_CAT_ID,ELEMENT_SET_NO,REV_AT_EPOCH,BSTAR,MEAN_MOTION_DOT,MEAN_MOTION_DDOT
STARLINK-37344,2026-082S,2026-05-09T03:52:23.922336,15.75218038,.0001439,97.2838,352.0933,99.6226,260.5202,0,U,68744,999,364,.10559E-2,.160551E-2,0
STARLINK-37267,2026-082T,2026-05-09T02:09:44.774784,15.75192997,.0002657,97.2835,352.0378,43.8371,316.3104,0,U,68745,999,363,.11914E-2,.181434E-2,0
STARLINK-37347,2026-082U,2026-05-09T04:55:55.917120,15.75205639,.0001709,97.2831,352.1865,81.0510,279.0949,0,U,68746,999,365,.89939E-3,.136275E-2,0
STARLINK-37268,2026-082V,2026-05-09T03:44:46.628736,15.75203920,.0001446,97.2837,352.1001,93.9714,266.1717,0,U,68747,999,364,.74884E-3,.113124E-2,0
STARLINK-37325,2026-082W,2026-05-09T04:00:01.998720,15.75174302,.0001367,97.2853,352.1965,89.7485,162.3959,0,U,68748,999,491,-.67148E-4,-.10126E-3,0
STARLINK-37324,2026-082X,2026-05-09T04:00:01.998720,15.75204701,.0001571,97.2850,352.2066,97.7453,180.3948,0,U,68749,999,491,-.32304E-3,-.48074E-3,0
STARLINK-37350,2026-082Y,2026-05-09T04:00:01.998720,15.49202410,.0000907,97.2855,351.9507,114.9253,285.6076,0,U,68750,999,491,.49799E-3,.27099E-3,0
STARLINK-37277,2026-082Z,2026-05-09T03:07:10.367904,15.75201407,.0001295,97.2840,352.1373,76.2433,283.8976,0,U,68751,999,364,.88068E-3,.133364E-2,0
STARLINK-37342,2026-082AA,2026-05-09T03:47:18.881952,15.75174790,.0001441,97.2837,352.0976,94.0225,266.1205,0,U,68752,999,364,.66332E-3,.99908E-3,0
SL-4 R/B,2026-083A,2026-05-09T04:23:11.294304,15.22192887,.0063693,98.2684,276.6534,4.0417,356.1317,0,U,68753,999,339,.13634E-3,.3218E-4,0
COSMOS 2609,2026-083B,2026-05-08T22:36:37.590336,15.07213630,.00108349,98.1177,275.6860,196.5482,163.5392,0,U,68754,999,331,.14619604E-3,.2134E-4,0
COSMOS 2610,2026-083F,2026-05-08T22:45:17.300160,15.06330984,.00105315,96.9602,267.1092,180.9535,179.1675,0,U,68758,999,329,.11546548E-3,.1646E-4,0
COSMOS 2611,2026-083G,2026-05-08T21:11:29.684544,15.06071470,.00116586,96.9541,267.0436,190.6546,169.4438,0,U,68759,999,327,.10290271E-3,.1451E-4,0
DAQI-2,2026-084A,2026-05-09T04:18:30.890880,14.57602179,.000136,98.2878,203.5115,175.3036,184.8176,0,U,68760,999,321,.14294E-4,.19E-6,0
COSMOS 2612,2026-083H,2026-05-08T22:37:59.589120,15.06866386,.00126649,96.9615,267.1160,177.8047,182.3240,0,U,68762,999,329,.14928871E-3,.2177E-4,0
COSMOS 2613,2026-083J,2026-05-08T22:32:53.458368,15.07371912,.00111706,96.9595,267.1208,183.1063,177.0099,0,U,68763,999,329,.16468159E-3,.244E-4,0
COSMOS 2614,2026-083K,2026-05-08T22:30:22.829472,15.07569095,.00116958,96.9544,267.1156,186.4614,173.6467,0,U,68764,999,329,.1715495E-3,.2558E-4,0
STARLINK-37168,2026-086A,2026-05-09T03:53:37.444416,15.75215106,.0001032,97.2850,165.2223,79.7519,280.3862,0,U,68766,999,301,.9794E-3,.148684E-2,0
STARLINK-37174,2026-086B,2026-05-09T03:51:35.583264,15.75185342,.0001147,97.2848,165.2246,94.0122,266.1274,0,U,68767,999,301,.5162E-3,.77551E-3,0
STARLINK-37279,2026-086C,2026-05-09T03:49:33.607200,15.75161294,.0001353,97.2853,165.2263,78.9162,281.2256,0,U,68768,999,301,.56849E-4,.8347E-4,0
STARLINK-36379,2026-086D,2026-05-09T03:50:34.497600,15.75207644,.0000847,97.2849,165.2252,50.3899,309.7441,0,U,68769,999,301,.92989E-3,.140987E-2,0
STARLINK-37417,2026-086E,2026-05-09T03:47:01.173408,15.75186282,.0001457,97.2852,165.2291,72.1447,287.9977,0,U,68770,999,301,.65433E-3,.98587E-3,0
STARLINK-36759,2026-086F,2026-05-09T03:47:31.602624,15.75200611,.0001254,97.2855,165.2274,80.3489,279.7918,0,U,68771,999,301,.66741E-3,.100645E-2,0
STARLINK-37399,2026-086G,2026-05-09T03:46:00.120576,15.75203810,.0001129,97.2850,165.2297,76.2084,283.9307,0,U,68772,999,301,.79437E-3,.120106E-2,0
STARLINK-37281,2026-086H,2026-05-09T03:44:28.703328,15.75217392,.0001278,97.2851,165.2306,62.0841,298.0554,0,U,68773,999,301,.10278E-2,.156186E-2,0
STARLINK-37381,2026-086J,2026-05-09T03:42:57.242016,15.75189007,.0001086,97.2855,165.2319,57.7420,302.3950,0,U,68774,999,301,.58268E-3,.87672E-3,0
STARLINK-37418,2026-086K,2026-05-09T03:40:24.725280,15.75194378,.000111,97.2854,165.2349,90.8695,269.2697,0,U,68775,999,301,.60939E-3,.91763E-3,0
STARLINK-37393,2026-086L,2026-05-09T03:37:52.296672,15.75194976,.0000987,97.2852,165.2369,80.4261,279.7116,0,U,68776,999,301,.67191E-3,.101307E-2,0
STARLINK-37400,2026-086M,2026-05-09T03:35:19.804128,15.75210952,.0000937,97.2853,165.2392,84.7305,275.4067,0,U,68777,999,301,.92328E-3,.139989E-2,0
STARLINK-37389,2026-086N,2026-05-09T03:39:54.194112,15.75191311,.0001041,97.2854,165.2346,88.5738,271.5646,0,U,68778,999,301,.55155E-3,.82944E-3,0
